ONEWEB-0258             
1 48976U 21060K   24211.93983829  .00000070  00000+0  14963-3 0  9996
2 48976  87.9123   5.6190 0001776  95.6743 264.4591 13.16592265149164
ONEWEB-0259             
1 48977U 21060L   24211.93350024  .00000009  00000+0 -10648-4 0  9992
2 48977  87.9122   5.6049 0001557  97.4013 262.7295 13.16593067149190
ONEWEB-0260             
1 48978U 21060M   24211.84880807 -.00000039  00000+0 -13595-3 0  9997
2 48978  87.9124   5.6507 0002215  81.0659 279.0722 13.16593303149165
ONEWEB-0261             
1 48979U 21060N   24211.89392838  .00000003  00000+0 -25335-4 0  9991
2 48979  87.9128   5.6366 0001502  75.1949 284.9348 13.16595256149222
ONEWEB-0262             
1 48980U 21060P   24211.87492336  .00000108  00000+0  24783-3 0  9995
2 48980  87.9122   5.6033 0001312  97.1464 262.9816 13.16595684149180
ONEWEB-0263             
1 48981U 21060Q   24211.90659670 -.00000019  00000+0 -82768-4 0  9997
2 48981  87.9128   5.6147 0001361  83.5538 276.5748 13.16595077149156
ONEWEB-0264             
1 48982U 21060R   24212.17178102  .00000087  00000+0  19523-3 0  9995
2 48982  87.9126   5.5729 0001743  92.8165 267.3166 13.16596351150489
ONEWEB-0266             
1 48984U 21060T   24211.88918185  .00000135  00000+0  31893-3 0  9995
2 48984  87.9124   5.6055 0001795  96.6682 263.4654 13.16594435149146
